{"fetched_at":"2026-07-19T07:05:28.070Z","source":"https://celestrak.org/NORAD/elements/gp.php?NAME=PLEIADES&FORMAT=JSON","constellation":"pleiades","records":[{"OBJECT_NAME":"PLEIADES 1A","OBJECT_ID":"2011-076F","EPOCH":"2026-07-18T19:54:40.496832","CLASSIFICATION_TYPE":"U","MEAN_MOTION":14.58548006,"ECCENTRICITY":0.0001625,"INCLINATION":98.1965,"RA_OF_ASC_NODE":274.5056,"ARG_OF_PERICENTER":77.4661,"MEAN_ANOMALY":35.694,"EPHEMERIS_TYPE":0,"NORAD_CAT_ID":38012,"ELEMENT_SET_NO":999,"REV_AT_EPOCH":77660,"BSTAR":0.000037681,"MEAN_MOTION_DOT":0.00000129,"MEAN_MOTION_DDOT":0},{"OBJECT_NAME":"PLEIADES 1B","OBJECT_ID":"2012-068A","EPOCH":"2026-07-18T20:12:37.145376","CLASSIFICATION_TYPE":"U","MEAN_MOTION":14.58535067,"ECCENTRICITY":0.0001525,"INCLINATION":98.1936,"RA_OF_ASC_NODE":274.4559,"ARG_OF_PERICENTER":77.6569,"MEAN_ANOMALY":282.4801,"EPHEMERIS_TYPE":0,"NORAD_CAT_ID":39019,"ELEMENT_SET_NO":999,"REV_AT_EPOCH":72546,"BSTAR":0.000012509,"MEAN_MOTION_DOT":1.2e-7,"MEAN_MOTION_DDOT":0}]}
